H1 CPF 01  gfz 2021 11 17 01  8211 tandemx   
H2 1003001  6202 36605    2021 11 17 00 59 42 2021 11 22 00 00 42   120 1 1  0 0 0
H9
10 0 59538  25902.000000  0   -6547706.035   2116145.118    327583.789
10 0 59538  26022.000000  0   -6392485.902   2252350.217   1226311.829
10 0 59538  26142.000000  0   -6123487.329   2345462.271   2103442.944
10 0 59538  26262.000000  0   -5746184.560   2391904.324   2943526.478
10 0 59538  26382.000000  0   -5268019.490   2389035.797   3731769.357
10 0 59538  26502.000000  0   -4698247.823   2335230.436   4454302.751
10 0 59538  26622.000000  0   -4047751.158   2229932.685   5098428.131
10 0 59538  26742.000000  0   -3328821.105   2073691.265   5652839.692
10 0 59538  26862.000000  0   -2554919.471   1868169.906   6107820.795
10 0 59538  26982.000000  0   -1740418.423   1616133.936   6455409.914
10 0 59538  27102.000000  0    -900328.083   1321413.265   6689533.529
10 0 59538  27222.000000  0     -50017.721    988843.323   6806104.801
10 0 59538  27342.000000  0     795064.819    624184.983   6803090.053
10 0 59538  27462.000000  0    1619672.664    234024.748   6680541.841
10 0 59538  27582.000000  0    2409033.630   -174343.422   6440598.352
10 0 59538  27702.000000  0    3149114.564   -593053.675   6087449.708
10 0 59538  27822.000000  0    3826872.961  -1013818.321   5627269.583
10 0 59538  27942.000000  0    4430490.687  -1428090.610   5068112.778
10 0 59538  28062.000000  0    4949585.126  -1827237.390   4419780.164
10 0 59538  28182.000000  0    5375395.803  -2202717.589   3693652.563
10 0 59538  28302.000000  0    5700941.623  -2546264.045   2902493.353
10 0 59538  28422.000000  0    5921142.691  -2850064.048   2060223.204
10 0 59538  28542.000000  0    6032905.418  -3106933.699   1181672.862
10 0 59538  28662.000000  0    6035169.548  -3310483.039    282316.261
10 0 59538  28782.000000  0    5928912.588  -3455265.893   -622010.103
10 0 59538  28902.000000  0    5717114.217  -3536911.859  -1515395.370
10 0 59538  29022.000000  0    5404678.140  -3552235.206  -2382143.368
10 0 59538  29142.000000  0    4998317.107  -3499319.875  -3207054.362
10 0 59538  29262.000000  0    4506403.314  -3377578.264  -3975695.679
10 0 59538  29382.000000  0    3938788.253  -3187782.838  -4674654.427
10 0 59538  29502.000000  0    3306596.884  -2932069.393  -5291768.275
10 0 59538  29622.000000  0    2622002.403  -2613912.778  -5816328.882
10 0 59538  29742.000000  0    1897988.417  -2238078.179  -6239257.152
10 0 59538  29862.000000  0    1148101.481  -1810547.651  -6553251.099
10 0 59538  29982.000000  0     386197.518  -1338421.704  -6752901.400
10 0 59538  30102.000000  0    -373810.924   -829800.899  -6834774.192
10 0 59538  30222.000000  0   -1118203.051   -293648.708  -6797462.868
10 0 59538  30342.000000  0   -1833691.716    260362.851  -6641609.510
10 0 59538  30462.000000  0   -2507655.110    822023.297  -6369894.212
10 0 59538  30582.000000  0   -3128354.367   1380766.722  -5986994.050
10 0 59538  30702.000000  0   -3685135.605   1925865.660  -5499511.940
10 0 59538  30822.000000  0   -4168614.985   2446633.551  -4915874.802
10 0 59538  30942.000000  0   -4570841.932   2932633.026  -4246198.709
10 0 59538  31062.000000  0   -4885436.078   3373884.570  -3502123.281
10 0 59538  31182.000000  0   -5107696.575   3761072.489  -2696618.777
10 0 59538  31302.000000  0   -5234680.318   4085743.851  -1843764.983
10 0 59538  31422.000000  0   -5265246.653   4340494.411   -958506.938
10 0 59538  31542.000000  0   -5200067.202   4519137.557    -56390.495
10 0 59538  31662.000000  0   -5041598.940   4616851.698    846716.770
10 0 59538  31782.000000  0   -4794020.277   4630300.335   1734913.971
10 0 59538  31902.000000  0   -4463131.670   4557721.871   2592556.332
10 0 59538  32022.000000  0   -4056223.223   4398987.991   3404539.103
10 0 59538  32142.000000  0   -3581913.523   4155628.489   4156570.071
10 0 59538  32262.000000  0   -3049964.635   3830822.095   4835424.991
10 0 59538  32382.000000  0   -2471077.247   3429354.061   5429181.891
10 0 59538  32502.000000  0   -1856670.523   2957541.456   5927428.833
10 0 59538  32622.000000  0   -1218652.422   2423128.521   6321442.215
10 0 59538  32742.000000  0    -569185.793   1835154.041   6604332.469
10 0 59538  32862.000000  0      79543.085   1203795.470   6771157.780
10 0 59538  32982.000000  0     715553.119    540190.774   6819005.686
10 0 59538  33102.000000  0    1327288.835   -143757.997   6747040.048
10 0 59538  33222.000000  0    1903829.223   -835597.285   6556515.466
10 0 59538  33342.000000  0    2435082.307  -1522548.338   6250757.078
10 0 59538  33462.000000  0    2911962.812  -2191742.452   5835107.170
10 0 59538  33582.000000  0    3326550.375  -2830463.033   5316837.188
10 0 59538  33702.000000  0    3672224.359  -3426389.059   4705026.479
10 0 59538  33822.000000  0    3943773.828  -3967836.310   4010408.795
10 0 59538  33942.000000  0    4137480.072  -4443991.327   3245187.442
10 0 59538  34062.000000  0    4251169.164  -4845132.932   2422822.090
10 0 59538  34182.000000  0    4284233.840  -5162835.802   1557789.982
10 0 59538  34302.000000  0    4237623.004  -5390150.588    665326.011
10 0 59538  34422.000000  0    4113798.685  -5521755.526   -238852.673
10 0 59538  34542.000000  0    3916663.420  -5554077.016  -1138830.909
10 0 59538  34662.000000  0    3651457.444  -5485375.560  -2018785.476
10 0 59538  34782.000000  0    3324629.136  -5315793.194  -2863270.616
10 0 59538  34902.000000  0    2943683.391  -5047363.478  -3657494.941
10 0 59538  35022.000000  0    2517010.176  -4683983.204  -4387582.904
10 0 59538  35142.000000  0    2053698.758  -4231347.721  -5040815.370
10 0 59538  35262.000000  0    1563343.626  -3696851.522  -5605844.948
10 0 59538  35382.000000  0    1055846.709  -3089458.812  -6072883.498
10 0 59538  35502.000000  0     541218.654  -2419547.332  -6433861.196
10 0 59538  35622.000000  0      29383.415  -1698727.076  -6682555.115
10 0 59538  35742.000000  0    -470009.203   -939637.762  -6814685.870
10 0 59538  35862.000000  0    -947760.233   -155729.130  -6827983.091
10 0 59538  35982.000000  0   -1395286.659    638972.515  -6722219.392
10 0 59538  36102.000000  0   -1804772.104   1430108.584  -6499213.420
10 0 59538  36222.000000  0   -2169300.021   2203241.207  -6162801.810
10 0 59538  36342.000000  0   -2482969.412   2944110.660  -5718781.403
10 0 59538  36462.000000  0   -2740990.907   3638895.772  -5174819.736
10 0 59538  36582.000000  0   -2939761.786   4274472.044  -4540334.639
10 0 59538  36702.000000  0   -3076918.591   4838663.444  -3826341.545
10 0 59538  36822.000000  0   -3151364.407   5320480.856  -3045270.183
10 0 59538  36942.000000  0   -3163270.989   5710342.652  -2210755.847
10 0 59538  37062.000000  0   -3114056.436   6000275.197  -1337405.461
10 0 59538  37182.000000  0   -3006335.629   6184084.749   -440540.290
10 0 59538  37302.000000  0   -2843846.779   6257495.254    464075.764
10 0 59538  37422.000000  0   -2631356.022   6218252.598   1360520.846
10 0 59538  37542.000000  0   -2374537.392   6066185.586   2233007.184
10 0 59538  37662.000000  0   -2079834.198   5803222.643   3066168.343
10 0 59538  37782.000000  0   -1754306.916   5433366.843   3845336.549
10 0 59538  37902.000000  0   -1405471.028   4962630.198   4556805.666
10 0 59538  38022.000000  0   -1041128.095   4398928.228   5188075.047
10 0 59538  38142.000000  0    -669193.380   3751937.595   5728068.190
10 0 59538  38262.000000  0    -297527.030   3032921.643   6167323.612
10 0 59538  38382.000000  0      66229.721   2254526.275   6498155.283
10 0 59538  38502.000000  0     414809.395   1430552.885   6714780.852
10 0 59538  38622.000000  0     741461.926    575710.123   6813417.282
10 0 59538  38742.000000  0    1040083.846   -294649.137   6792341.678
10 0 59538  38862.000000  0    1305331.404  -1164802.394   6651920.555
10 0 59538  38982.000000  0    1532716.135  -2018941.257   6394604.214
10 0 59538  39102.000000  0    1718681.174  -2841458.448   6024887.306
10 0 59538  39222.000000  0    1860657.198  -3617234.810   5549235.049
10 0 59538  39342.000000  0    1957096.775  -4331920.335   4975975.091
10 0 59538  39462.000000  0    2007487.176  -4972203.310   4315157.303
10 0 59538  39582.000000  0    2012342.337  -5526065.971   3578383.618
10 0 59538  39702.000000  0    1973171.760  -5983019.703   2778605.748
10 0 59538  39822.000000  0    1892426.651  -6334311.876   1929896.566
10 0 59538  39942.000000  0    1773427.181  -6573101.005   1047199.954
10 0 59538  40062.000000  0    1620270.420  -6694596.915    146062.519
10 0 59538  40182.000000  0    1437721.103  -6696161.800   -757647.721
10 0 59538  40302.000000  0    1231087.597  -6577367.155  -1648032.516
10 0 59538  40422.000000  0    1006086.356  -6340002.499  -2509451.579
10 0 59538  40542.000000  0     768699.871  -5988040.887  -3326803.319
10 0 59538  40662.000000  0     525033.120  -5527561.689  -4085792.794
10 0 59538  40782.000000  0     281169.000  -4966633.098  -4773181.596
10 0 59538  40902.000000  0      43027.535  -4315157.985  -5377014.042
10 0 59538  41022.000000  0    -183767.575  -3584688.200  -5886817.638
10 0 59538  41142.000000  0    -394012.452  -2788210.770  -6293774.652
10 0 59538  41262.000000  0    -583034.153  -1939911.714  -6590863.226
10 0 59538  41382.000000  0    -746787.728  -1054922.057  -6772967.133
10 0 59538  41502.000000  0    -881937.572   -149050.502  -6836955.153
10 0 59538  41622.000000  0    -985921.758    761494.339  -6781728.295
10 0 59538  41742.000000  0   -1056998.943   1660386.283  -6608235.933
10 0 59538  41862.000000  0   -1094277.079   2531466.790  -6319461.080
10 0 59538  41982.000000  0   -1097723.387   3359028.874  -5920375.944
10 0 59538  42102.000000  0   -1068155.944   4128097.870  -5417865.788
10 0 59538  42222.000000  0   -1007216.201   4824702.425  -4820621.160
10 0 59538  42342.000000  0    -917323.586   5436133.088  -4138999.183
99
